     2.11           N: GPS NAV DATA                         RINEX VERSION / TYPE
teqc  2018Dec12     gpsops              20220207 01:04:03UTCPGM / RUN BY / DATE
Linux 2.6.32-573.12.1.x86_64|x86_64|gcc -static|Linux 64|=+ COMMENT
CHPI                                    MARKER NAME         COMMENT
41609M003                               MARKER NUMBER       COMMENT
4164613.9484 -4162456.9866 -2445028.7316                    COMMENT
                                                            COMMENT
This data is provided as a public service by NASA/JPL.      COMMENT
No warranty is expressed or implied regarding suitability   COMMENT
for use.  For further information, contact:                 COMMENT
Dave Stowers, NASA/JPL m/s 238-600                          COMMENT
4800 Oak Grove Drive, Pasadena CA 91109 USA                 COMMENT
                                                            END OF HEADER
 5 22  2  6  2  0  0.0-7.043359801173D-05-1.364242052659D-12 0.000000000000D+00
    8.600000000000D+01-1.262500000000D+01 4.813414783761D-09-1.915809226698D+00
   -6.221234798431D-07 5.869776592590D-03 4.529953002930D-06 5.153656349182D+03
    7.200000000000D+03 9.685754776001D-08-7.889157206607D-01-5.960464477539D-08
    9.594655981419D-01 2.911562500000D+02 1.010404724578D+00-8.300702900451D-09
    3.750156209059D-11 1.000000000000D+00 2.196000000000D+03 0.000000000000D+00
    2.000000000000D+00 0.000000000000D+00-1.117587089539D-08 8.600000000000D+01
    3.522000000000D+03 4.000000000000D+00
17 22  2  6  2  0  0.0 5.713067948818D-04 5.229594535194D-12 0.000000000000D+00
    7.100000000000D+01-1.996875000000D+01 4.065169330620D-09-2.385562367288D+00
   -9.164214134216D-07 1.364809856750D-02 9.344890713692D-06 5.153754306793D+03
    7.200000000000D+03 1.192092895508D-07-2.781973267142D+00 1.750886440277D-07
    9.802060723974D-01 2.063125000000D+02-1.501045880563D+00-7.606388265174D-09
   -1.921508609975D-10 1.000000000000D+00 2.196000000000D+03 0.000000000000D+00
    2.000000000000D+00 0.000000000000D+00-1.117587089539D-08 7.100000000000D+01
    4.176000000000D+03 4.000000000000D+00
13 22  2  6  2  0  0.0 2.570594660938D-04 6.139089236967D-12 0.000000000000D+00
    3.200000000000D+01-4.368750000000D+01 4.094456264824D-09-2.878323756778D+00
   -2.237036824226D-06 5.800027749501D-03 1.076050102711D-05 5.153679138184D+03
    7.200000000000D+03 5.029141902924D-08 4.321152369112D-01-9.313225746155D-09
    9.688557781721D-01 1.754375000000D+02 9.641603802127D-01-7.738536626827D-09
   -1.992940156814D-10 1.000000000000D+00 2.196000000000D+03 0.000000000000D+00
    2.000000000000D+00 0.000000000000D+00-1.117587089539D-08 3.200000000000D+01
    6.138000000000D+03 4.000000000000D+00
19 22  2  6  2  0  0.0 1.151687465608D-04 5.002220859751D-12 0.000000000000D+00
    2.300000000000D+01-2.284375000000D+01 4.181245594234D-09 2.248803523122D-02
   -1.160427927971D-06 8.945269510150D-03 9.674578905106D-06 5.153683572769D+03
    7.200000000000D+03-5.587935447693D-08-2.737101944540D+00-3.725290298462D-08
    9.789386411352D-01 2.059375000000D+02 2.004279373092D+00-8.029263022462D-09
   -2.500104139373D-10 1.000000000000D+00 2.196000000000D+03 0.000000000000D+00
    2.000000000000D+00 0.000000000000D+00-1.583248376846D-08 2.300000000000D+01
    6.996000000000D+03 4.000000000000D+00
14 22  2  6  4  0  0.0-8.039642125368D-05-4.774847184308D-12 0.000000000000D+00
    1.200000000000D+01 1.784375000000D+01 4.978421656959D-09 1.501528545514D+00
    8.605420589447D-07 1.404457958415D-03 4.531815648079D-06 5.153646377563D+03
    1.440000000000D+04 3.352761268616D-08 2.433014428063D+00 2.048909664154D-08
    9.537910179100D-01 2.881562500000D+02 3.023990219891D+00-8.443923151864D-09
   -2.392956819114D-11 1.000000000000D+00 2.196000000000D+03 0.000000000000D+00
    2.000000000000D+00 0.000000000000D+00-7.450580596924D-09 1.200000000000D+01
    7.218000000000D+03 4.000000000000D+00
30 22  2  6  4  0  0.0-5.116006359458D-04-2.387423592154D-12 0.000000000000D+00
    1.770000000000D+02 5.003125000000D+01 4.991993650859D-09 2.130417357394D+00
    2.611428499222D-06 5.483473883942D-03 9.408220648766D-06 5.153587205887D+03
    1.440000000000D+04-1.266598701477D-07 1.364533320118D+00 5.587935447693D-09
    9.358517567478D-01 1.863437500000D+02-2.748447100997D+00-8.283916486944D-09
    2.085801167705D-10 1.000000000000D+00 2.196000000000D+03 0.000000000000D+00
    2.000000000000D+00 0.000000000000D+00 3.725290298462D-09 1.770000000000D+02
    7.218000000000D+03 4.000000000000D+00
 7 22  2  6  4  0  0.0 3.081243485212D-04 2.955857780762D-12 0.000000000000D+00
    3.400000000000D+01 4.487500000000D+01 4.604834666990D-09 2.099222087883D+00
    2.190470695496D-06 1.550522702746D-02 9.721145033836D-06 5.153700283051D+03
    1.440000000000D+04-2.477318048477D-07 1.351251902346D+00-3.073364496231D-07
    9.506895525844D-01 1.876875000000D+02-2.293061136960D+00-8.026405760589D-09
    2.689397738497D-10 1.000000000000D+00 2.196000000000D+03 0.000000000000D+00
    2.000000000000D+00 0.000000000000D+00-1.117587089539D-08 3.400000000000D+01
    7.218000000000D+03 4.000000000000D+00
 9 22  2  6  4  0  0.0-3.553265705705D-04 1.477928890381D-12 0.000000000000D+00
    3.100000000000D+01-5.765625000000D+01 4.609477717535D-09-8.938712846184D-01
   -3.067776560783D-06 2.284140558913D-03 9.333714842796D-06 5.153630971909D+03
    1.440000000000D+04-3.725290298462D-08 2.794142034774D-01 2.421438694000D-08
    9.544439431184D-01 1.965000000000D+02 1.871960081531D+00-8.134624554050D-09
   -2.410814705824D-10 1.000000000000D+00 2.196000000000D+03 0.000000000000D+00
    2.000000000000D+00 0.000000000000D+00 1.396983861923D-09 3.100000000000D+01
    7.218000000000D+03 4.000000000000D+00
28 22  2  6  4  0  0.0 4.065665416420D-04-8.185452315956D-12 0.000000000000D+00
    9.300000000000D+01 9.343750000000D+00 4.704838832565D-09-8.519725881466D-01
    5.234032869339D-07 1.686429115944D-02 5.202367901802D-06 5.153695589066D+03
    1.440000000000D+04-2.253800630569D-07 2.486245692581D+00 1.303851604462D-08
    9.695094743383D-01 2.902187500000D+02-1.289853410498D+00-8.534998374084D-09
    8.428922527028D-11 1.000000000000D+00 2.196000000000D+03 0.000000000000D+00
    4.000000000000D+00 6.300000000000D+01-1.117587089539D-08 9.300000000000D+01
    7.218000000000D+03 4.000000000000D+00
20 22  2  6  4  0  0.0 5.168309435248D-04-2.273736754432D-13 0.000000000000D+00
    4.500000000000D+01-3.687500000000D+00 5.280219942355D-09-2.488249504139D+00
   -1.750886440277D-07 5.204174201936D-03 4.112720489502D-06 5.153738784790D+03
    1.440000000000D+04-8.754432201385D-08-9.028445739576D-01-7.264316082001D-08
    9.416034766500D-01 2.871875000000D+02 3.124444992029D+00-8.577142986719D-09
    5.928818387655D-11 1.000000000000D+00 2.196000000000D+03 0.000000000000D+00
    2.000000000000D+00 0.000000000000D+00-8.381903171539D-09 4.500000000000D+01
    7.218000000000D+03 4.000000000000D+00
 5 22  2  6  4  0  0.0-7.044337689877D-05-1.364242052659D-12 0.000000000000D+00
    8.700000000000D+01-1.478125000000D+01 4.907704425588D-09-8.655549501122D-01
   -7.282942533493D-07 5.869796499610D-03 4.420056939125D-06 5.153657018661D+03
    1.440000000000D+04 1.676380634308D-08-7.889756447110D-01 1.061707735062D-07
    9.594649295884D-01 2.925312500000D+02 1.010343868649D+00-8.472852928334D-09
   -1.750072897561D-11 1.000000000000D+00 2.196000000000D+03 0.000000000000D+00
    2.000000000000D+00 0.000000000000D+00-1.117587089539D-08 8.700000000000D+01
    7.218000000000D+03 4.000000000000D+00
17 22  2  6  4  0  0.0 5.713440477848D-04 5.229594535194D-12 0.000000000000D+00
    7.300000000000D+01-2.175000000000D+01 4.122314568091D-09-1.335336535681D+00
   -8.884817361832D-07 1.364788191859D-02 9.199604392052D-06 5.153756820679D+03
    1.440000000000D+04-2.346932888031D-07-2.782028678090D+00 2.998858690262D-07
    9.802030368424D-01 2.162812500000D+02-1.501143938499D+00-7.944616639458D-09
   -2.246522148093D-10 1.000000000000D+00 2.196000000000D+03 0.000000000000D+00
    2.000000000000D+00 0.000000000000D+00-1.117587089539D-08 7.300000000000D+01
    7.218000000000D+03 4.000000000000D+00
 8 22  2  6  4  0  0.0-5.504162982106D-05-1.477928890381D-12 0.000000000000D+00
    4.800000000000D+01-3.656250000000D+01 4.475900724945D-09-1.241769993779D+00
   -2.114102244377D-06 7.251904578879D-03 7.847324013710D-06 5.153714370728D+03
    1.440000000000D+04 5.774199962616D-08-2.863748120250D+00-1.769512891769D-07
    9.651118870011D-01 2.277812500000D+02 9.641106029622D-02-8.078550789781D-09
   -1.717928701483D-10 1.000000000000D+00 2.196000000000D+03 0.000000000000D+00
    2.000000000000D+00 0.000000000000D+00 5.122274160385D-09 4.800000000000D+01
    7.218000000000D+03 4.000000000000D+00
 4 22  2  6  4  0  0.0-1.911814324558D-04 2.160049916711D-12 0.000000000000D+00
    2.130000000000D+02-5.950000000000D+01 4.375182243902D-09-1.722282724217D+00
   -3.186985850334D-06 1.695630489849D-03 9.486451745033D-06 5.153657867432D+03
    1.440000000000D+04-9.313225746155D-08 3.322781307293D-01-2.048909664154D-08
    9.614382539338D-01 1.974062500000D+02-3.075628651890D+00-7.931401803292D-09
   -2.375098932404D-10 1.000000000000D+00 2.196000000000D+03 0.000000000000D+00
    2.000000000000D+00 0.000000000000D+00-4.190951585770D-09 4.690000000000D+02
    7.218000000000D+03 4.000000000000D+00
13 22  2  6  4  0  0.0 2.571041695774D-04 6.139089236967D-12 0.000000000000D+00
    3.300000000000D+01-3.868750000000D+01 4.159458972448D-09-1.828311164499D+00
   -2.026557922363D-06 5.800769664347D-03 1.044385135174D-05 5.153676912308D+03
    1.440000000000D+04 1.136213541031D-07 4.320597220960D-01-3.725290298462D-08
    9.688541894430D-01 1.828437500000D+02 9.643228650609D-01-7.760323248613D-09
   -2.446530479243D-10 1.000000000000D+00 2.196000000000D+03 0.000000000000D+00
    2.000000000000D+00 0.000000000000D+00-1.117587089539D-08 3.300000000000D+01
    7.218000000000D+03 4.000000000000D+00
